*******************************************************************************
Ephemeris / WWW_USER Fri Mar  7 10:31:11 2025 Pasadena, USA      / Horizons    
*******************************************************************************
Target body name: (2018 RY7)                      {source: JPL#20}
Center body name: Earth (399)                     {source: DE441}
Center-site name: Mauna Kea
*******************************************************************************
Start time      : A.D. 2018-Oct-15 04:08:00.0000 UT      
Stop  time      : A.D. 2018-Oct-15 16:07:00.0000 UT      
Step-size       : 1 minutes
*******************************************************************************
Target pole/equ : undefined
Target radii    : undefined                                                    
Center geodetic : 204.5278, 19.8260847, 4.21024   {E-lon(deg),Lat(deg),Alt(km)}
Center cylindric: 204.5278, 6006.35451, 2151.0229 {E-lon(deg),Dxy(km),Dz(km)}
Center pole/equ : ITRF93                          {East-longitude positive}
Center radii    : 6378.137, 6378.137, 6356.752 km {Equator_a, b, pole_c}       
Target primary  : Sun
Vis. interferer : MOON (R_eq= 1737.400) km        {source: DE441}
Rel. light bend : Sun                             {source: DE441}
Rel. lght bnd GM: 1.3271E+11 km^3/s^2                                          
Small-body perts: Yes                             {source: SB441-N16}
Atmos refraction: NO (AIRLESS)
RA format       : HMS
Time format     : CAL 
Calendar mode   : Mixed Julian/Gregorian
RTS-only print  : NO       
EOP file        : eop.250306.p250602                                           
EOP coverage    : DATA-BASED 1962-JAN-20 TO 2025-MAR-06. PREDICTS-> 2025-JUN-01
Units conversion: 1 au= 149597870.700 km, c= 299792.458 km/s, 1 day= 86400.0 s 
Table cut-offs 1: Elevation (-90.0deg=NO ),Airmass (>38.000=NO), Daylight (YES)
Table cut-offs 2: Solar elongation (  0.0,180.0=NO ),Local Hour Angle( 0.0=NO )
Table cut-offs 3: RA/DEC angular rate (     0.0=NO )                           
*******************************************************************************
Initial IAU76/J2000 heliocentric ecliptic osculating elements (au, days, deg.):
  EPOCH=  2458422.5 ! 2018-Oct-31.00 (TDB)         Residual RMS= .22459        
   EC= .1470549687381346   QR= .8667733479166969   TP= 2458516.8896767548      
   OM= 2.838668085760325   W=  136.9006026425241   IN= 13.35135890147074       
  Equivalent ICRF heliocentric cartesian coordinates (au, au/d):
   X= 8.791791513870114E-01  Y= 4.508422091141234E-01  Z= 3.244113040133835E-01
  VX=-1.085418916943652E-02 VY= 1.006005810562689E-02 VZ= 7.673980932675997E-03
Asteroid physical parameters (km, seconds, rotational period in hours):        
   GM= n.a.                RAD= n.a.               ROTPER= n.a.                
   H= 24.4                 G= .150                 B-V= n.a.                   
                           ALBEDO= n.a.            STYP= n.a.                  
*******************************************************************************
 Date__(UT)__HR:MN     R.A._________(ICRF)_________DEC
******************************************************
$$SOE
 2018-Oct-15 10:17     21 54 00.570091 +24 10 28.53915
 2018-Oct-15 10:18     21 54 00.304424 +24 10 30.42395
 2018-Oct-15 10:19     21 54 00.038844 +24 10 32.30834
 2018-Oct-15 10:20     21 53 59.773350 +24 10 34.19233
 2018-Oct-15 10:21     21 53 59.507942 +24 10 36.07593
 2018-Oct-15 10:22     21 53 59.242621 +24 10 37.95913
 2018-Oct-15 10:23     21 53 58.977387 +24 10 39.84193
 2018-Oct-15 10:24     21 53 58.712240 +24 10 41.72435
 2018-Oct-15 10:25     21 53 58.447180 +24 10 43.60637
 2018-Oct-15 10:26     21 53 58.182208 +24 10 45.48800
 2018-Oct-15 10:27     21 53 57.917324 +24 10 47.36925
 2018-Oct-15 10:28     21 53 57.652528 +24 10 49.25012
 2018-Oct-15 10:29     21 53 57.387821 +24 10 51.13060
 2018-Oct-15 10:30     21 53 57.123202 +24 10 53.01070
 2018-Oct-15 10:31     21 53 56.858672 +24 10 54.89043
 2018-Oct-15 10:32     21 53 56.594231 +24 10 56.76978
 2018-Oct-15 10:33     21 53 56.329879 +24 10 58.64875
 2018-Oct-15 10:34     21 53 56.065617 +24 11 00.52736
 2018-Oct-15 10:35     21 53 55.801444 +24 11 02.40559
 2018-Oct-15 10:36     21 53 55.537362 +24 11 04.28345
 2018-Oct-15 10:37     21 53 55.273370 +24 11 06.16095
 2018-Oct-15 10:38     21 53 55.009468 +24 11 08.03809
 2018-Oct-15 10:39     21 53 54.745656 +24 11 09.91486
 2018-Oct-15 10:40     21 53 54.481936 +24 11 11.79128
 2018-Oct-15 10:41     21 53 54.218306 +24 11 13.66734
 2018-Oct-15 10:42     21 53 53.954768 +24 11 15.54304
 2018-Oct-15 10:43     21 53 53.691322 +24 11 17.41839
 2018-Oct-15 10:44     21 53 53.427967 +24 11 19.29338
 2018-Oct-15 10:45     21 53 53.164703 +24 11 21.16803
 2018-Oct-15 10:46     21 53 52.901532 +24 11 23.04233
 2018-Oct-15 10:47     21 53 52.638454 +24 11 24.91629
 2018-Oct-15 10:48     21 53 52.375467 +24 11 26.78990
 2018-Oct-15 10:49     21 53 52.112574 +24 11 28.66317
 2018-Oct-15 10:50     21 53 51.849773 +24 11 30.53610
 2018-Oct-15 10:51     21 53 51.587066 +24 11 32.40870
 2018-Oct-15 10:52     21 53 51.324451 +24 11 34.28096
 2018-Oct-15 10:53     21 53 51.061931 +24 11 36.15289
 2018-Oct-15 10:54     21 53 50.799504 +24 11 38.02449
 2018-Oct-15 10:55     21 53 50.537170 +24 11 39.89576
 2018-Oct-15 10:56     21 53 50.274931 +24 11 41.76671
 2018-Oct-15 10:57     21 53 50.012786 +24 11 43.63733
 2018-Oct-15 10:58     21 53 49.750736 +24 11 45.50763
 2018-Oct-15 10:59     21 53 49.488780 +24 11 47.37761
 2018-Oct-15 11:00     21 53 49.226919 +24 11 49.24728
 2018-Oct-15 11:01     21 53 48.965153 +24 11 51.11663
 2018-Oct-15 11:02     21 53 48.703482 +24 11 52.98566
 2018-Oct-15 11:03     21 53 48.441906 +24 11 54.85439
 2018-Oct-15 11:04     21 53 48.180426 +24 11 56.72280
 2018-Oct-15 11:05     21 53 47.919042 +24 11 58.59092
 2018-Oct-15 11:06     21 53 47.657753 +24 12 00.45872
 2018-Oct-15 11:07     21 53 47.396561 +24 12 02.32623
 2018-Oct-15 11:08     21 53 47.135465 +24 12 04.19343
 2018-Oct-15 11:09     21 53 46.874465 +24 12 06.06034
 2018-Oct-15 11:10     21 53 46.613561 +24 12 07.92695
 2018-Oct-15 11:11     21 53 46.352755 +24 12 09.79327
 2018-Oct-15 11:12     21 53 46.092045 +24 12 11.65930
 2018-Oct-15 11:13     21 53 45.831432 +24 12 13.52504
 2018-Oct-15 11:14     21 53 45.570917 +24 12 15.39049
 2018-Oct-15 11:15     21 53 45.310498 +24 12 17.25566
 2018-Oct-15 11:16     21 53 45.050177 +24 12 19.12055
 2018-Oct-15 11:17     21 53 44.789954 +24 12 20.98515
 2018-Oct-15 11:18     21 53 44.529829 +24 12 22.84948
 2018-Oct-15 11:19     21 53 44.269802 +24 12 24.71354
 2018-Oct-15 11:20     21 53 44.009872 +24 12 26.57732
 2018-Oct-15 11:21     21 53 43.750041 +24 12 28.44083
 2018-Oct-15 11:22     21 53 43.490308 +24 12 30.30407
 2018-Oct-15 11:23     21 53 43.230674 +24 12 32.16705
 2018-Oct-15 11:24     21 53 42.971139 +24 12 34.02976
 2018-Oct-15 11:25     21 53 42.711702 +24 12 35.89221
 2018-Oct-15 11:26     21 53 42.452364 +24 12 37.75440
 2018-Oct-15 11:27     21 53 42.193126 +24 12 39.61634
 2018-Oct-15 11:28     21 53 41.933986 +24 12 41.47802
 2018-Oct-15 11:29     21 53 41.674946 +24 12 43.33944
 2018-Oct-15 11:30     21 53 41.416005 +24 12 45.20062
 2018-Oct-15 11:31     21 53 41.157164 +24 12 47.06155
 2018-Oct-15 11:32     21 53 40.898423 +24 12 48.92223
 2018-Oct-15 11:33     21 53 40.639781 +24 12 50.78267
 2018-Oct-15 11:34     21 53 40.381240 +24 12 52.64287
 2018-Oct-15 11:35     21 53 40.122798 +24 12 54.50283
 2018-Oct-15 11:36     21 53 39.864457 +24 12 56.36255
 2018-Oct-15 11:37     21 53 39.606216 +24 12 58.22204
 2018-Oct-15 11:38     21 53 39.348076 +24 13 00.08130
 2018-Oct-15 11:39     21 53 39.090036 +24 13 01.94032
 2018-Oct-15 11:40     21 53 38.832097 +24 13 03.79913
 2018-Oct-15 11:41     21 53 38.574258 +24 13 05.65770
 2018-Oct-15 11:42     21 53 38.316521 +24 13 07.51605
 2018-Oct-15 11:43     21 53 38.058884 +24 13 09.37419
 2018-Oct-15 11:44     21 53 37.801349 +24 13 11.23210
 2018-Oct-15 11:45     21 53 37.543914 +24 13 13.08980
 2018-Oct-15 11:46     21 53 37.286582 +24 13 14.94729
 2018-Oct-15 11:47     21 53 37.029350 +24 13 16.80456
 2018-Oct-15 11:48     21 53 36.772220 +24 13 18.66163
 2018-Oct-15 11:49     21 53 36.515192 +24 13 20.51849
 2018-Oct-15 11:50     21 53 36.258265 +24 13 22.37514
 2018-Oct-15 11:51     21 53 36.001440 +24 13 24.23160
 2018-Oct-15 11:52     21 53 35.744717 +24 13 26.08786
 2018-Oct-15 11:53     21 53 35.488096 +24 13 27.94391
 2018-Oct-15 11:54     21 53 35.231577 +24 13 29.79978
 2018-Oct-15 11:55     21 53 34.975160 +24 13 31.65545
 2018-Oct-15 11:56     21 53 34.718845 +24 13 33.51093
 2018-Oct-15 11:57     21 53 34.462633 +24 13 35.36623
 2018-Oct-15 11:58     21 53 34.206523 +24 13 37.22134
 2018-Oct-15 11:59     21 53 33.950515 +24 13 39.07627
 2018-Oct-15 12:00     21 53 33.694610 +24 13 40.93101
 2018-Oct-15 12:01     21 53 33.438807 +24 13 42.78558
 2018-Oct-15 12:02     21 53 33.183108 +24 13 44.63998
 2018-Oct-15 12:03     21 53 32.927511 +24 13 46.49420
 2018-Oct-15 12:04     21 53 32.672016 +24 13 48.34825
 2018-Oct-15 12:05     21 53 32.416625 +24 13 50.20213
 2018-Oct-15 12:06     21 53 32.161337 +24 13 52.05584
 2018-Oct-15 12:07     21 53 31.906151 +24 13 53.90939
 2018-Oct-15 12:08     21 53 31.651069 +24 13 55.76278
 2018-Oct-15 12:09     21 53 31.396090 +24 13 57.61602
 2018-Oct-15 12:10     21 53 31.141214 +24 13 59.46909
 2018-Oct-15 12:11     21 53 30.886441 +24 14 01.32201
 2018-Oct-15 12:12     21 53 30.631771 +24 14 03.17478
 2018-Oct-15 12:13     21 53 30.377205 +24 14 05.02740
 2018-Oct-15 12:14     21 53 30.122742 +24 14 06.87987
 2018-Oct-15 12:15     21 53 29.868383 +24 14 08.73220
 2018-Oct-15 12:16     21 53 29.614127 +24 14 10.58438
 2018-Oct-15 12:17     21 53 29.359975 +24 14 12.43643
 2018-Oct-15 12:18     21 53 29.105926 +24 14 14.28834
 2018-Oct-15 12:19     21 53 28.851981 +24 14 16.14011
